[{"OBJECT_NAME":"STARLINK-31511","OBJECT_ID":"2024-068H","EPOCH":"2026-03-09T07:34:28.879392","MEAN_MOTION":15.27576819,"ECCENTRICITY":0.00013745,"INCLINATION":43.0023,"RA_OF_ASC_NODE":36.79,"ARG_OF_PERICENTER":254.748,"MEAN_ANOMALY":105.322,"EPHEMERIS_TYPE":0,"CLASSIFICATION_TYPE":"U","NORAD_CAT_ID":59462,"ELEMENT_SET_NO":999,"REV_AT_EPOCH":10846,"BSTAR":-5.07593e-6,"MEAN_MOTION_DOT":-4.02e-6,"MEAN_MOTION_DDOT":0},{"OBJECT_NAME":"TEVEL2-5","OBJECT_ID":"2025-052E","EPOCH":"2026-03-09T23:11:54.246048","MEAN_MOTION":15.30817434,"ECCENTRICITY":0.00047002,"INCLINATION":97.4013,"RA_OF_ASC_NODE":325.3677,"ARG_OF_PERICENTER":95.3936,"MEAN_ANOMALY":264.7842,"EPHEMERIS_TYPE":0,"CLASSIFICATION_TYPE":"U","NORAD_CAT_ID":63214,"ELEMENT_SET_NO":999,"REV_AT_EPOCH":5491,"BSTAR":0.00071764727,"MEAN_MOTION_DOT":0.00021339,"MEAN_MOTION_DDOT":0}]
