STARLINK-31511          
1 59462U 24068H   26068.31561203 -.00000402  00000+0 -50759-5 0  9997
2 59462  43.0023  36.7900 0001374 254.7480 105.3220 15.27576819108463
TEVEL2-5                
1 63214U 25052E   26068.96660006  .00021339  00000+0  71765-3 0  9991
2 63214  97.4013 325.3677 0004700  95.3936 264.7842 15.30817434 54919
